SHIYAN-1 (SY-1)         
1 28220U 04012A   26068.73650539  .00016393  00000+0  54854-3 0  9991
2 28220  97.8764 140.5238 0005873  23.6952 336.4557 15.31043463195862
STARLINK-31114          
1 58766U 24011B   26068.26656756 -.00000628  00000+0 -90847-5 0  9995
2 58766  53.1615  13.6666 0001084  87.3657 272.7468 15.30192842120231
